{
    "links": {
        "self": "http://www.neowsapp.com/rest/v1/neo/3551478?api_key=iIulBulltgU6a56xZRHN4H3l9WmuAYTsLGpBGhQ2"
    },
    "id": "3551478",
    "neo_reference_id": "3551478",
    "name": "(2010 VO139)",
    "designation": "2010 VO139",
    "nasa_jpl_url": "http://ssd.jpl.nasa.gov/sbdb.cgi?sstr=3551478",
    "absolute_magnitude_h": 26.464,
    "estimated_diameter": {
        "kilometers": {
            "estimated_diameter_min": 0.0135442505,
            "estimated_diameter_max": 0.0302858648
        },
        "meters": {
            "estimated_diameter_min": 13.5442504746,
            "estimated_diameter_max": 30.2858647654
        },
        "miles": {
            "estimated_diameter_min": 0.0084160045,
            "estimated_diameter_max": 0.0188187581
        },
        "feet": {
            "estimated_diameter_min": 44.436518727,
            "estimated_diameter_max": 99.3630765569
        }
    },
    "is_potentially_hazardous_asteroid": false,
    "close_approach_data": [
        {
            "close_approach_date": "2010-10-19",
            "close_approach_date_full": "2010-Oct-19 20:54",
            "epoch_date_close_approach": 1287521640000,
            "relative_velocity": {
                "kilometers_per_second": "19.9390291785",
                "kilometers_per_hour": "71780.5050424236",
                "miles_per_hour": "44601.614369277"
            },
            "miss_distance": {
                "astronomical": "0.0965858419",
                "lunar": "37.5718924991",
                "kilometers": "14449036.220396753",
                "miles": "8978214.7820030714"
            },
            "orbiting_body": "Venus"
        },
        {
            "close_approach_date": "2010-11-10",
            "close_approach_date_full": "2010-Nov-10 01:10",
            "epoch_date_close_approach": 1289351400000,
            "relative_velocity": {
                "kilometers_per_second": "20.5755343647",
                "kilometers_per_hour": "74071.9237129142",
                "miles_per_hour": "46025.4128203939"
            },
            "miss_distance": {
                "astronomical": "0.0085491756",
                "lunar": "3.3256293084",
                "kilometers": "1278938.460015972",
                "miles": "794695.5085335336"
            },
            "orbiting_body": "Moon"
        },
        {
            "close_approach_date": "2010-11-10",
            "close_approach_date_full": "2010-Nov-10 04:34",
            "epoch_date_close_approach": 1289363640000,
            "relative_velocity": {
                "kilometers_per_second": "21.2350604614",
                "kilometers_per_hour": "76446.2176611019",
                "miles_per_hour": "47500.7067461441"
            },
            "miss_distance": {
                "astronomical": "0.0078311987",
                "lunar": "3.0463362943",
                "kilometers": "1171530.645066769",
                "miles": "727955.3871046522"
            },
            "orbiting_body": "Earth"
        }
    ],
    "orbital_data": {
        "orbit_id": "7",
        "orbit_determination_date": "2017-04-06 08:55:43",
        "first_observation_date": "2010-11-14",
        "last_observation_date": "2010-11-14",
        "data_arc_in_days": null,
        "observations_used": 11,
        "orbit_uncertainty": "9",
        "minimum_orbit_intersection": ".0077931",
        "jupiter_tisserand_invariant": "3.402",
        "epoch_osculation": "2455514.5",
        "eccentricity": ".7033585723959043",
        "semi_major_axis": "2.069986605398881",
        "inclination": "7.720316590741447",
        "ascending_node_longitude": "230.8249449819093",
        "orbital_period": "1087.801691207874",
        "perihelion_distance": ".61404378174688",
        "perihelion_argument": "91.16115873791985",
        "aphelion_distance": "3.525929429050882",
        "perihelion_time": "2455464.934557618979",
        "mean_anomaly": "16.40332001815002",
        "mean_motion": ".3309426735678845",
        "equinox": "J2000",
        "orbit_class": {
            "orbit_class_type": "APO",
            "orbit_class_description": "Near-Earth asteroid orbits which cross the Earth’s orbit similar to that of 1862 Apollo",
            "orbit_class_range": "a (semi-major axis) > 1.0 AU; q (perihelion) < 1.017 AU"
        }
    },
    "is_sentry_object": false
}